CCSDS_OMM_VERS = 2.0
CREATION_DATE  = 
ORIGINATOR     = 

OBJECT_NAME    = CZ-2C R/B
OBJECT_ID      = 2022-132E
CENTER_NAME    = EARTH
REF_FRAME      = TEME
TIME_SYSTEM    = UTC
MEAN_ELEMENT_THEORY = SGP/SGP4

EPOCH          = 2026-01-30T21:56:43.804896
MEAN_MOTION    = 15.58594131
ECCENTRICITY   = .00170393
INCLINATION    = 97.2948
RA_OF_ASC_NODE = 33.1866
ARG_OF_PERICENTER = 224.6077
MEAN_ANOMALY   = 135.3809

EPHEMERIS_TYPE = 0
CLASSIFICATION_TYPE = U
NORAD_CAT_ID   = 54039
ELEMENT_SET_NO = 999
REV_AT_EPOCH   = 18448
BSTAR          = .50302757E-3
MEAN_MOTION_DOT = .388E-3
MEAN_MOTION_DDOT = 0

CCSDS_OMM_VERS = 2.0
CREATION_DATE  = 
ORIGINATOR     = 

OBJECT_NAME    = GSLV R/B
OBJECT_ID      = 2022-138AN
CENTER_NAME    = EARTH
REF_FRAME      = TEME
TIME_SYSTEM    = UTC
MEAN_ELEMENT_THEORY = SGP/SGP4

EPOCH          = 2026-01-30T22:38:50.888256
MEAN_MOTION    = 14.96475906
ECCENTRICITY   = .00195092
INCLINATION    = 87.3847
RA_OF_ASC_NODE = 178.9938
ARG_OF_PERICENTER = 291.3413
MEAN_ANOMALY   = 68.5736

EPHEMERIS_TYPE = 0
CLASSIFICATION_TYPE = U
NORAD_CAT_ID   = 54149
ELEMENT_SET_NO = 999
REV_AT_EPOCH   = 17828
BSTAR          = .36721782E-3
MEAN_MOTION_DOT = .421E-4
MEAN_MOTION_DDOT = 0

CCSDS_OMM_VERS = 2.0
CREATION_DATE  = 
ORIGINATOR     = 

OBJECT_NAME    = XRISM
OBJECT_ID      = 2023-137A
CENTER_NAME    = EARTH
REF_FRAME      = TEME
TIME_SYSTEM    = UTC
MEAN_ELEMENT_THEORY = SGP/SGP4

EPOCH          = 2026-01-30T17:30:00.363168
MEAN_MOTION    = 15.11004802
ECCENTRICITY   = .0007966
INCLINATION    = 31.0007
RA_OF_ASC_NODE = 169.0974
ARG_OF_PERICENTER = 18.5583
MEAN_ANOMALY   = 341.5345

EPHEMERIS_TYPE = 0
CLASSIFICATION_TYPE = U
NORAD_CAT_ID   = 57800
ELEMENT_SET_NO = 999
REV_AT_EPOCH   = 13204
BSTAR          = .3942883E-3
MEAN_MOTION_DOT = .6851E-4
MEAN_MOTION_DDOT = 0

CCSDS_OMM_VERS = 2.0
CREATION_DATE  = 
ORIGINATOR     = 

OBJECT_NAME    = ACS3
OBJECT_ID      = 2024-077B
CENTER_NAME    = EARTH
REF_FRAME      = TEME
TIME_SYSTEM    = UTC
MEAN_ELEMENT_THEORY = SGP/SGP4

EPOCH          = 2026-01-30T21:20:59.054496
MEAN_MOTION    = 13.88028094
ECCENTRICITY   = .00464401
INCLINATION    = 97.2272
RA_OF_ASC_NODE = 340.4967
ARG_OF_PERICENTER = 199.5872
MEAN_ANOMALY   = 160.3508

EPHEMERIS_TYPE = 0
CLASSIFICATION_TYPE = U
NORAD_CAT_ID   = 59588
ELEMENT_SET_NO = 999
REV_AT_EPOCH   = 8895
BSTAR          = .20865006E-1
MEAN_MOTION_DOT = .25118E-3
MEAN_MOTION_DDOT = 0

CCSDS_OMM_VERS = 2.0
CREATION_DATE  = 
ORIGINATOR     = 

OBJECT_NAME    = SZ-21 MODULE
OBJECT_ID      = 2025-246C
CENTER_NAME    = EARTH
REF_FRAME      = TEME
TIME_SYSTEM    = UTC
MEAN_ELEMENT_THEORY = SGP/SGP4

EPOCH          = 2026-01-30T20:03:48.494016
MEAN_MOTION    = 15.65707701
ECCENTRICITY   = .00034152
INCLINATION    = 41.4761
RA_OF_ASC_NODE = 75.8706
ARG_OF_PERICENTER = 259.1766
MEAN_ANOMALY   = 100.8691

EPHEMERIS_TYPE = 0
CLASSIFICATION_TYPE = U
NORAD_CAT_ID   = 66515
ELEMENT_SET_NO = 999
REV_AT_EPOCH   = 1213
BSTAR          = .31391486E-3
MEAN_MOTION_DOT = .32437E-3
MEAN_MOTION_DDOT = 0

